BEIDOU-3 M14 (C33)      
1 43623U 18072B   24190.08490012 -.00000045  00000+0  00000+0 0  9994
2 43623  56.0100  86.1757 0005122 344.2942  15.7338  1.86231630 39441
BEIDOU-3 M24 (C46)      
1 44542U 19061A   24188.31405796  .00000055  00000+0  00000+0 0  9992
2 44542  54.4424 206.7122 0007873 341.5126  18.5060  1.86229160 32551
BEIDOU-3 M23 (C45)      
1 44543U 19061B   24189.63048155  .00000043  00000+0  00000+0 0  9998
2 44543  54.4407 206.6363 0005556 319.8567 115.0988  1.86231832 32575
BEIDOU-3 M22 (C44)      
1 44793U 19078A   24186.01203673 -.00000112  00000+0  00000+0 0  9998
2 44793  54.5506 324.7804 0005679  33.5021 326.5187  1.86232212 31365
BEIDOU-3 M21 (C43)      
1 44794U 19078B   24188.82653087 -.00000107  00000+0  00000+0 0  9992
2 44794  54.5219 324.6585 0003430  31.5922 328.4186  1.86232752 31429
GSAT0223 (PRN E34)      
1 49809U 21116A   24187.75852145 -.00000100  00000+0  00000+0 0  9990
2 49809  57.2980   0.8653 0002144 161.4041  19.0432  1.70475992 16058
GSAT0224 (PRN E10)      
1 49810U 21116B   24188.45986104 -.00000100  00000+0  00000+0 0  9993
2 49810  57.2989   0.8449 0001898 141.8248 221.5579  1.70476081 16094
ELEKTRO-L 3             
1 44903U 19095A   24190.14841274 -.00000100  00000+0  00000+0 0  9991
2 44903   0.0747 147.4126 0000364  28.8358 239.7990  1.00271457 16588
GOES 18                 
1 51850U 22021A   24189.66579959  .00000093  00000+0  00000+0 0  9996
2 51850   0.0167 209.8791 0000257 306.5814 232.3208  1.00273084  8690
COSMOS 2547 (705K)      
1 46805U 20075A   24189.42143007  .00000054  00000+0  00000+0 0  9999
2 46805  64.6004 216.1958 0008955 241.6300 118.3435  2.13103103 28784
GPS BIII-1  (PRN 04)    
1 43873U 18109A   24189.27324795 -.00000022  00000+0  00000+0 0  9990
2 43873  55.3041 120.2343 0029190 194.6145 337.4519  2.00557033 40833
GPS BIII-2  (PRN 18)    
1 44506U 19056A   24188.44926917 -.00000106  00000+0  00000+0 0  9991
2 44506  55.8410 359.3217 0043526 188.4916  11.2317  2.00572143 35817
GPS BIII-3  (PRN 23)    
1 45854U 20041A   24189.50466013 -.00000067  00000+0  00000+0 0  9994
2 45854  56.1398  56.6283 0044029 192.9568 343.6698  2.00573448 29800
GPS BIII-4  (PRN 14)    
1 46826U 20078A   24189.35373362  .00000025  00000+0  00000+0 0  9994
2 46826  54.1731 239.5888 0047424 197.6925 208.2027  2.00560277 27270
METEOR-M2 2             
1 44387U 19038A   24190.16103499  .00000063  00000+0  47112-4 0  9993
2 44387  98.8277 159.4684 0000145 221.8030 138.3137 14.23899573260377
METEOR-M2 3             
1 57166U 23091A   24190.05569318  .00000049  00000+0  40732-4 0  9995
2 57166  98.7117 244.5413 0005075  75.2276 284.9465 14.23903109 53591
METEOR-M2 4             
1 59051U 24039A   24190.16993340  .00000053  00000+0  43033-4 0  9993
2 59051  98.5985 151.5479 0008208  67.4444 292.7601 14.22236957 18473
